$$SOE
2460154.500000000, A.D. 2023-Jul-29 00:00:00.0000, -2.642294881821173E+08, 4.177993559557288E+08, -7.618189058864988E+07,
2460161.500000000, A.D. 2023-Aug-05 00:00:00.0000, -2.722235329320419E+08, 4.124702601846787E+08, -7.694533368129815E+07,
2460168.500000000, A.D. 2023-Aug-12 00:00:00.0000, -2.801119884055849E+08, 4.069811057637247E+08, -7.767891758281550E+07,
2460175.500000000, A.D. 2023-Aug-19 00:00:00.0000, -2.878917784639342E+08, 4.013339946171517E+08, -7.838235256733014E+07,
2460182.500000000, A.D. 2023-Aug-26 00:00:00.0000, -2.955598622426087E+08, 3.955310824818017E+08, -7.905535902072042E+07,
2460189.500000000, A.D. 2023-Sep-02 00:00:00.0000, -3.031132349332251E+08, 3.895745784636130E+08, -7.969766751554394E+07,
2460196.500000000, A.D. 2023-Sep-09 00:00:00.0000, -3.105489285528065E+08, 3.834667444785635E+08, -8.030901889716452E+07,
2460203.500000000, A.D. 2023-Sep-16 00:00:00.0000, -3.178640125325281E+08, 3.772098945195580E+08, -8.088916440119325E+07,
2460210.500000000, A.D. 2023-Sep-23 00:00:00.0000, -3.250555937098468E+08, 3.708063940354580E+08, -8.143786581688738E+07,
2460217.500000000, A.D. 2023-Sep-30 00:00:00.0000, -3.321208160643365E+08, 3.642586606124693E+08, -8.195489556802937E+07,
2460224.500000000, A.D. 2023-Oct-07 00:00:00.0000, -3.390568625520138E+08, 3.575691654154014E+08, -8.244003654005814E+07,
2460231.500000000, A.D. 2023-Oct-14 00:00:00.0000, -3.458609579978105E+08, 3.507404320759348E+08, -8.289308201951152E+07,
2460238.500000000, A.D. 2023-Oct-21 00:00:00.0000, -3.525303698167614E+08, 3.437750346288222E+08, -8.331383591005532E+07,
2460245.500000000, A.D. 2023-Oct-28 00:00:00.0000, -3.590624079896801E+08, 3.366755967549374E+08, -8.370211290957771E+07,
2460252.500000000, A.D. 2023-Nov-04 00:00:00.0000, -3.654544255446461E+08, 3.294447915613018E+08, -8.405773859700030E+07,
2460259.500000000, A.D. 2023-Nov-11 00:00:00.0000, -3.717038193668828E+08, 3.220853412984352E+08, -8.438054949407673E+07,
2460266.500000000, A.D. 2023-Nov-18 00:00:00.0000, -3.778080311174544E+08, 3.146000169504578E+08, -8.467039312732667E+07,
2460273.500000000, A.D. 2023-Nov-25 00:00:00.0000, -3.837645481877618E+08, 3.069916377201853E+08, -8.492712809467539E+07,
2460280.500000000, A.D. 2023-Dec-02 00:00:00.0000, -3.895709046611251E+08, 2.992630703975673E+08, -8.515062413992913E+07,
2460287.500000000, A.D. 2023-Dec-09 00:00:00.0000, -3.952246822027861E+08, 2.914172285516803E+08, -8.534076224649505E+07,
2460294.500000000, A.D. 2023-Dec-16 00:00:00.0000, -4.007235105900198E+08, 2.834570715573505E+08, -8.549743477505448E+07,
2460301.500000000, A.D. 2023-Dec-23 00:00:00.0000, -4.060650675338029E+08, 2.753856041419010E+08, -8.562054562050979E+07,
2460308.500000000, A.D. 2023-Dec-30 00:00:00.0000, -4.112470791335222E+08, 2.672058774996606E+08, -8.571001017970175E+07,
2460315.500000000, A.D. 2024-Jan-06 00:00:00.0000, -4.162673227393095E+08, 2.589209896135318E+08, -8.576575516123196E+07,
2460322.500000000, A.D. 2024-Jan-13 00:00:00.0000, -4.211236290495603E+08, 2.505340829775573E+08, -8.578771867672502E+07,
2460329.500000000, A.D. 2024-Jan-20 00:00:00.0000, -4.258138822192583E+08, 2.420483428042973E+08, -8.577585047360107E+07,
2460336.500000000, A.D. 2024-Jan-27 00:00:00.0000, -4.303360200085191E+08, 2.334669963684936E+08, -8.573011207043698E+07,
2460343.500000000, A.D. 2024-Feb-03 00:00:00.0000, -4.346880344001926E+08, 2.247933125387666E+08, -8.565047683376166E+07,
2460350.500000000, A.D. 2024-Feb-10 00:00:00.0000, -4.388679724085143E+08, 2.160306012062561E+08, -8.553693004560590E+07,
2460357.500000000, A.D. 2024-Feb-17 00:00:00.0000, -4.428739369391463E+08, 2.071822126174886E+08, -8.538946897366181E+07,
2460364.500000000, A.D. 2024-Feb-24 00:00:00.0000, -4.467040876637979E+08, 1.982515366252897E+08, -8.520810294585772E+07,
2460371.500000000, A.D. 2024-Mar-02 00:00:00.0000, -4.503566418793319E+08, 1.892420018241049E+08, -8.499285343440598E+07,
2460378.500000000, A.D. 2024-Mar-09 00:00:00.0000, -4.538298752119279E+08, 1.801570745056539E+08, -8.474375416692048E+07,
2460385.500000000, A.D. 2024-Mar-16 00:00:00.0000, -4.571221217705017E+08, 1.710002576308731E+08, -8.446085128449431E+07,
2460392.500000000, A.D. 2024-Mar-23 00:00:00.0000, -4.602317738526905E+08, 1.617750909257690E+08, -8.414420344644757E+07,
2460399.500000000, A.D. 2024-Mar-30 00:00:00.0000, -4.631572834451400E+08, 1.524851520730934E+08, -8.379388167856772E+07,
2460406.500000000, A.D. 2024-Apr-06 00:00:00.0000, -4.658971652632149E+08, 1.431340556321210E+08, -8.340996926409236E+07,
2460413.500000000, A.D. 2024-Apr-13 00:00:00.0000, -4.684499977782777E+08, 1.337254505233397E+08, -8.299256193466580E+07,
2460420.500000000, A.D. 2024-Apr-20 00:00:00.0000, -4.708144231830646E+08, 1.242630187535379E+08, -8.254176805453715E+07,
2460427.500000000, A.D. 2024-Apr-27 00:00:00.0000, -4.729891478121783E+08, 1.147504748185313E+08, -8.205770870470819E+07,
2460434.500000000, A.D. 2024-May-04 00:00:00.0000, -4.749729429301260E+08, 1.051915650798610E+08, -8.154051773276964E+07,
2460441.500000000, A.D. 2024-May-11 00:00:00.0000, -4.767646456481162E+08, 9.559006701365967E+07, -8.099034179844637E+07,
2460448.500000000, A.D. 2024-May-18 00:00:00.0000, -4.783631598867879E+08, 8.594978835304393E+07, -8.040734042021358E+07,
2460455.500000000, A.D. 2024-May-25 00:00:00.0000, -4.797674573593013E+08, 7.627456611648896E+07, -7.979168602539107E+07,
2460462.500000000, A.D. 2024-Jun-01 00:00:00.0000, -4.809765785141404E+08, 6.656826546429773E+07, -7.914356401344781E+07,
2460469.500000000, A.D. 2024-Jun-08 00:00:00.0000, -4.819896331904392E+08, 5.683477835975249E+07, -7.846317285651454E+07,
2460476.500000000, A.D. 2024-Jun-15 00:00:00.0000, -4.828058005853177E+08, 4.707802257950048E+07, -7.775072422866885E+07,
2460483.500000000, A.D. 2024-Jun-22 00:00:00.0000, -4.834243295374308E+08, 3.730194224746123E+07, -7.700644297523522E+07,
2460490.500000000, A.D. 2024-Jun-29 00:00:00.0000, -4.838445412482379E+08, 2.751050807037592E+07, -7.623056687614910E+07,
2460497.500000000, A.D. 2024-Jul-06 00:00:00.0000, -4.840658317965448E+08, 1.770771480376337E+07, -7.542334664803606E+07,
2460504.500000000, A.D. 2024-Jul-13 00:00:00.0000, -4.840876724958805E+08, 7.897578772796325E+06, -7.458504613249859E+07,
2460511.500000000, A.D. 2024-Jul-20 00:00:00.0000, -4.839096100783157E+08, -1.915863403976925E+06, -7.371594239391144E+07,
2460518.500000000, A.D. 2024-Jul-27 00:00:00.0000, -4.835312673600339E+08, -1.172855584861898E+07, -7.281632574490894E+07,
2460525.500000000, A.D. 2024-Aug-03 00:00:00.0000, -4.829523441154319E+08, -2.153642459051279E+07, -7.188649975537372E+07,
2460532.500000000, A.D. 2024-Aug-10 00:00:00.0000, -4.821726179927345E+08, -3.133537886966276E+07, -7.092678126029415E+07,
2460539.500000000, A.D. 2024-Aug-17 00:00:00.0000, -4.811919454215377E+08, -4.112131255447753E+07, -6.993750036854042E+07,
2460546.500000000, A.D. 2024-Aug-24 00:00:00.0000, -4.800102624818389E+08, -5.089010569658701E+07, -6.891900047640009E+07,
2460553.500000000, A.D. 2024-Aug-31 00:00:00.0000, -4.786275856167780E+08, -6.063762628515837E+07, -6.787163830125001E+07,
2460560.500000000, A.D. 2024-Sep-07 00:00:00.0000, -4.770440118223361E+08, -7.035973207549925E+07, -6.679578395871333E+07,
2460567.500000000, A.D. 2024-Sep-14 00:00:00.0000, -4.752597182280896E+08, -8.005227149686086E+07, -6.569182101011485E+07,
2460574.500000000, A.D. 2024-Sep-21 00:00:00.0000, -4.732749630973411E+08, -8.971108322733988E+07, -6.456014626085074E+07,
2460581.500000000, A.D. 2024-Sep-28 00:00:00.0000, -4.710900887343035E+08, -9.933199766385421E+07, -6.340116952926309E+07,
2460588.500000000, A.D. 2024-Oct-05 00:00:00.0000, -4.687055226288698E+08, -1.089108402847815E+08, -6.221531372275142E+07,
2460595.500000000, A.D. 2024-Oct-12 00:00:00.0000, -4.661217771976454E+08, -1.184434339237328E+08, -6.100301494397455E+07,
2460602.500000000, A.D. 2024-Oct-19 00:00:00.0000, -4.633394498690495E+08, -1.279256002249216E+08, -5.976472248794197E+07,
2460609.500000000, A.D. 2024-Oct-26 00:00:00.0000, -4.603592235426420E+08, -1.373531610820259E+08, -5.850089879219831E+07,
2460616.500000000, A.D. 2024-Nov-02 00:00:00.0000, -4.571818671639298E+08, -1.467219402091315E+08, -5.721201937571771E+07,
2460623.500000000, A.D. 2024-Nov-09 00:00:00.0000, -4.538082363165786E+08, -1.560277648227188E+08, -5.589857277345993E+07,
2460630.500000000, A.D. 2024-Nov-16 00:00:00.0000, -4.502392738043126E+08, -1.652664674339002E+08, -5.456106046860174E+07,
2460637.500000000, A.D. 2024-Nov-23 00:00:00.0000, -4.464760101735992E+08, -1.744338878002817E+08, -5.319999683045080E+07,
2460644.500000000, A.D. 2024-Nov-30 00:00:00.0000, -4.425195639668512E+08, -1.835258750795638E+08, -5.181590908025687E+07,
2460651.500000000, A.D. 2024-Dec-07 00:00:00.0000, -4.383711412846674E+08, -1.925382897635967E+08, -5.040933728860819E+07,
2460658.500000000, A.D. 2024-Dec-14 00:00:00.0000, -4.340320353433567E+08, -2.014670041681690E+08, -4.898083424075137E+07,
2460665.500000000, A.D. 2024-Dec-21 00:00:00.0000, -4.295036283438492E+08, -2.103079027189938E+08, -4.753096505818082E+07,
2460672.500000000, A.D. 2024-Dec-28 00:00:00.0000, -4.247873936782843E+08, -2.190568850014594E+08, -4.606030699979901E+07,
2460679.500000000, A.D. 2025-Jan-04 00:00:00.0000, -4.198848958763660E+08, -2.277098691972585E+08, -4.456944948642035E+07,
2460686.500000000, A.D. 2025-Jan-11 00:00:00.0000, -4.147977901106045E+08, -2.362627942463277E+08, -4.305899404522654E+07,
2460693.500000000, A.D. 2025-Jan-18 00:00:00.0000, -4.095278221743010E+08, -2.447116216516137E+08, -4.152955416444048E+07,
2460700.500000000, A.D. 2025-Jan-25 00:00:00.0000, -4.040768286861954E+08, -2.530523374007238E+08, -3.998175511889713E+07,
2460707.500000000, A.D. 2025-Feb-01 00:00:00.0000, -3.984467373304866E+08, -2.612809540341746E+08, -3.841623378607114E+07,
2460714.500000000, A.D. 2025-Feb-08 00:00:00.0000, -3.926395670722928E+08, -2.693935128397375E+08, -3.683363845599337E+07,
$$EOE